IRIDIUM 155             
1 43573U 18061E   26008.34118647  .00000331  00000+0  11115-3 0  9996
2 43573  86.3990 123.5249 0002099  95.2432 264.9004 14.34218184390441
IRIDIUM 154             
1 43574U 18061F   26008.39192704  .00000322  00000+0  10789-3 0  9994
2 43574  86.3993 123.6296 0002059  94.2512 265.8919 14.34217632390501
IRIDIUM 163             
1 43575U 18061G   26008.37289950 -.00000008  00000+0 -99839-5 0  9991
2 43575  86.3992 123.5580 0002056 101.3581 258.7846 14.34217319390477
IRIDIUM 156             
1 43576U 18061H   26008.41729757  .00000065  00000+0  16266-4 0  9994
2 43576  86.3994 123.5471 0002265  96.4695 263.6759 14.34217959390479
IRIDIUM 164             
1 43577U 18061J   26008.39826920 -.00000074  00000+0 -33447-4 0  9994
2 43577  86.3995 123.5921 0001894  92.3245 267.8168 14.34217257390510
IRIDIUM 159             
1 43578U 18061K   26008.36655620  .00000265  00000+0  87673-4 0  9999
2 43578  86.3988 123.5454 0001929  97.0270 263.1146 14.34218335390471
IRIDIUM 180             
1 43922U 19002A   26008.50558956  .00000084  00000+0  22972-4 0  9998
2 43922  86.3939  60.3478 0002097  96.6826 263.4609 14.34217257366105
IRIDIUM 176             
1 43923U 19002B   26008.50285728  .00001002  00000+0  15503-3 0  9995
2 43923  86.6063  60.3158 0002435  97.4957 262.6537 14.72257356375750
IRIDIUM 168             
1 43924U 19002C   26008.49923885  .00000276  00000+0  91448-4 0  9992
2 43924  86.3943  60.4235 0002163  94.8530 265.2913 14.34215835366085
IRIDIUM 173             
1 43925U 19002D   26008.41679135  .00000173  00000+0  54702-4 0  9999
2 43925  86.3938  60.3533 0002313  97.9992 262.1466 14.34219482366051
IRIDIUM 169             
1 43926U 19002E   26008.48263807 -.00000545  00000+0 -18484-3 0  9993
2 43926  86.4215  91.9836 0002925 102.9759 257.1766 14.38604862367269
IRIDIUM 172             
1 43927U 19002F   26008.41045074  .00000015  00000+0 -17852-5 0  9992
2 43927  86.3941  60.3633 0001906  97.9435 262.1977 14.34217444366061
IRIDIUM 175             
1 43928U 19002G   26008.49819173  .00001257  00000+0  19535-3 0  9996
2 43928  86.1503   1.2116 0002808  66.1285 294.0225 14.72240257375742
IRIDIUM 171             
1 43929U 19002H   26008.39142388 -.00000022  00000+0 -14994-4 0  9999
2 43929  86.3946  60.6598 0002242  90.0242 270.1210 14.34217337366054
IRIDIUM 170             
1 43930U 19002J   26008.37310158  .00001014  00000+0  15691-3 0  9995
2 43930  86.6064  60.3736 0002382  88.1275 272.0215 14.72251457375745
IRIDIUM 167             
1 43931U 19002K   26008.38508167  .00000174  00000+0  54962-4 0  9997
2 43931  86.3941  60.3952 0002581  89.8635 270.2857 14.34217743366050
IRIDIUM 181             
1 56726U 23068S   26008.37152667  .00000654  00000+0  18846-3 0  9992
2 56726  86.4530 123.6063 0001786  88.2314 271.9091 14.43306770139381
IRIDIUM 177             
1 56727U 23068T   26008.51237310  .00001437  00000+0  18569-3 0  9990
2 56727  86.1929  44.6090 0002204  80.4033 279.7437 14.80211255142749
IRIDIUM 174             
1 56728U 23068U   26008.42869678  .00000842  00000+0  12967-3 0  9994
2 56728  86.6072  60.4820 0002193  93.3184 266.8284 14.72258237142512
IRIDIUM 178             
1 56729U 23068V   26008.50152992  .00001670  00000+0  21642-3 0  9998
2 56729  86.6533  92.1186 0002489  84.1611 275.9894 14.80221281142744
IRIDIUM 179             
1 56730U 23068W   26008.49611105  .00000998  00000+0  12785-3 0  9994
2 56730  86.6786 100.6267 0002376  88.6997 271.4497 14.80233813142746
